[{"OBJECT_NAME":"STARLINK-4656","OBJECT_ID":"2022-107AX","EPOCH":"2026-02-08T05:25:58.758528","MEAN_MOTION":15.0883601,"ECCENTRICITY":0.00014342,"INCLINATION":53.2181,"RA_OF_ASC_NODE":36.5177,"ARG_OF_PERICENTER":89.1544,"MEAN_ANOMALY":270.9612,"EPHEMERIS_TYPE":0,"CLASSIFICATION_TYPE":"U","NORAD_CAT_ID":53745,"ELEMENT_SET_NO":999,"REV_AT_EPOCH":19014,"BSTAR":-3.31685e-6,"MEAN_MOTION_DOT":-3.41e-6,"MEAN_MOTION_DDOT":0},{"OBJECT_NAME":"STARLINK-4589","OBJECT_ID":"2022-107AY","EPOCH":"2026-02-08T06:50:44.450880","MEAN_MOTION":15.08840111,"ECCENTRICITY":0.00014857,"INCLINATION":53.2185,"RA_OF_ASC_NODE":36.1746,"ARG_OF_PERICENTER":93.0069,"MEAN_ANOMALY":267.1094,"EPHEMERIS_TYPE":0,"CLASSIFICATION_TYPE":"U","NORAD_CAT_ID":53746,"ELEMENT_SET_NO":999,"REV_AT_EPOCH":19015,"BSTAR":0.00015945494,"MEAN_MOTION_DOT":2.251e-5,"MEAN_MOTION_DDOT":0},{"OBJECT_NAME":"STARLINK-4612","OBJECT_ID":"2022-107BC","EPOCH":"2026-02-08T05:36:33.955776","MEAN_MOTION":15.08860501,"ECCENTRICITY":0.0001516,"INCLINATION":53.2186,"RA_OF_ASC_NODE":36.5636,"ARG_OF_PERICENTER":85.018,"MEAN_ANOMALY":275.0985,"EPHEMERIS_TYPE":0,"CLASSIFICATION_TYPE":"U","NORAD_CAT_ID":53750,"ELEMENT_SET_NO":999,"REV_AT_EPOCH":19015,"BSTAR":0.00020954591,"MEAN_MOTION_DOT":3.05e-5,"MEAN_MOTION_DDOT":0},{"OBJECT_NAME":"STARLINK-4718","OBJECT_ID":"2022-111A","EPOCH":"2026-02-08T06:11:00.398400","MEAN_MOTION":15.08824986,"ECCENTRICITY":0.00015604,"INCLINATION":53.2187,"RA_OF_ASC_NODE":56.1733,"ARG_OF_PERICENTER":93.785,"MEAN_ANOMALY":266.332,"EPHEMERIS_TYPE":0,"CLASSIFICATION_TYPE":"U","NORAD_CAT_ID":53773,"ELEMENT_SET_NO":999,"REV_AT_EPOCH":18940,"BSTAR":1.3091402e-5,"MEAN_MOTION_DOT":-8.0e-7,"MEAN_MOTION_DDOT":0},{"OBJECT_NAME":"STARLINK-4719","OBJECT_ID":"2022-111B","EPOCH":"2026-02-08T06:05:40.292448","MEAN_MOTION":15.08839081,"ECCENTRICITY":0.00015111,"INCLINATION":53.2186,"RA_OF_ASC_NODE":56.149,"ARG_OF_PERICENTER":108.1912,"MEAN_ANOMALY":251.9245,"EPHEMERIS_TYPE":0,"CLASSIFICATION_TYPE":"U","NORAD_CAT_ID":53774,"ELEMENT_SET_NO":999,"REV_AT_EPOCH":18926,"BSTAR":6.438535e-5,"MEAN_MOTION_DOT":7.37e-6,"MEAN_MOTION_DDOT":0},{"OBJECT_NAME":"STARLINK-4722","OBJECT_ID":"2022-111C","EPOCH":"2026-02-08T06:49:27.640416","MEAN_MOTION":15.0883997,"ECCENTRICITY":0.000135,"INCLINATION":53.2174,"RA_OF_ASC_NODE":46.3597,"ARG_OF_PERICENTER":84.8312,"MEAN_ANOMALY":275.2834,"EPHEMERIS_TYPE":0,"CLASSIFICATION_TYPE":"U","NORAD_CAT_ID":53775,"ELEMENT_SET_NO":999,"REV_AT_EPOCH":18925,"BSTAR":-7.077577e-6,"MEAN_MOTION_DOT":-4.01e-6,"MEAN_MOTION_DDOT":0},{"OBJECT_NAME":"STARLINK-4664","OBJECT_ID":"2022-111E","EPOCH":"2026-02-08T06:38:50.836128","MEAN_MOTION":15.08836985,"ECCENTRICITY":0.00015406,"INCLINATION":53.2184,"RA_OF_ASC_NODE":46.3129,"ARG_OF_PERICENTER":89.388,"MEAN_ANOMALY":270.7289,"EPHEMERIS_TYPE":0,"CLASSIFICATION_TYPE":"U","NORAD_CAT_ID":53777,"ELEMENT_SET_NO":999,"REV_AT_EPOCH":18925,"BSTAR":3.4164194e-5,"MEAN_MOTION_DOT":2.56e-6,"MEAN_MOTION_DDOT":0},{"OBJECT_NAME":"STARLINK-4709","OBJECT_ID":"2022-111F","EPOCH":"2026-02-08T05:42:27.644544","MEAN_MOTION":15.08839759,"ECCENTRICITY":0.00014319,"INCLINATION":53.2179,"RA_OF_ASC_NODE":51.0601,"ARG_OF_PERICENTER":106.1467,"MEAN_ANOMALY":253.9683,"EPHEMERIS_TYPE":0,"CLASSIFICATION_TYPE":"U","NORAD_CAT_ID":53778,"ELEMENT_SET_NO":999,"REV_AT_EPOCH":18918,"BSTAR":4.2486475e-5,"MEAN_MOTION_DOT":3.88e-6,"MEAN_MOTION_DDOT":0},{"OBJECT_NAME":"STARLINK-4706","OBJECT_ID":"2022-111G","EPOCH":"2026-02-08T06:33:31.204512","MEAN_MOTION":15.08849904,"ECCENTRICITY":0.00013946,"INCLINATION":53.2184,"RA_OF_ASC_NODE":46.2903,"ARG_OF_PERICENTER":87.9496,"MEAN_ANOMALY":272.1656,"EPHEMERIS_TYPE":0,"CLASSIFICATION_TYPE":"U","NORAD_CAT_ID":53779,"ELEMENT_SET_NO":999,"REV_AT_EPOCH":18925,"BSTAR":0.00013984984,"MEAN_MOTION_DOT":1.939e-5,"MEAN_MOTION_DDOT":0},{"OBJECT_NAME":"STARLINK-4678","OBJECT_ID":"2022-111H","EPOCH":"2026-02-08T06:44:10.137696","MEAN_MOTION":15.08836208,"ECCENTRICITY":0.00014822,"INCLINATION":53.2195,"RA_OF_ASC_NODE":46.3336,"ARG_OF_PERICENTER":129.5405,"MEAN_ANOMALY":230.5719,"EPHEMERIS_TYPE":0,"CLASSIFICATION_TYPE":"U","NORAD_CAT_ID":53780,"ELEMENT_SET_NO":999,"REV_AT_EPOCH":18925,"BSTAR":-6.1924959e-5,"MEAN_MOTION_DOT":-1.273e-5,"MEAN_MOTION_DDOT":0},{"OBJECT_NAME":"STARLINK-4462","OBJECT_ID":"2022-111J","EPOCH":"2026-02-08T06:17:37.403808","MEAN_MOTION":15.08836677,"ECCENTRICITY":0.00014474,"INCLINATION":53.2183,"RA_OF_ASC_NODE":46.2231,"ARG_OF_PERICENTER":92.0837,"MEAN_ANOMALY":268.0321,"EPHEMERIS_TYPE":0,"CLASSIFICATION_TYPE":"U","NORAD_CAT_ID":53781,"ELEMENT_SET_NO":999,"REV_AT_EPOCH":18925,"BSTAR":9.33317e-6,"MEAN_MOTION_DOT":-1.39e-6,"MEAN_MOTION_DDOT":0},{"OBJECT_NAME":"STARLINK-4679","OBJECT_ID":"2022-111K","EPOCH":"2026-02-08T06:28:14.119104","MEAN_MOTION":15.08838404,"ECCENTRICITY":0.00012652,"INCLINATION":53.2173,"RA_OF_ASC_NODE":46.2683,"ARG_OF_PERICENTER":85.3164,"MEAN_ANOMALY":274.7972,"EPHEMERIS_TYPE":0,"CLASSIFICATION_TYPE":"U","NORAD_CAT_ID":53782,"ELEMENT_SET_NO":999,"REV_AT_EPOCH":18925,"BSTAR":1.9557166e-5,"MEAN_MOTION_DOT":2.3e-7,"MEAN_MOTION_DDOT":0},{"OBJECT_NAME":"STARLINK-4536","OBJECT_ID":"2022-111L","EPOCH":"2026-02-08T06:07:01.156800","MEAN_MOTION":15.08826369,"ECCENTRICITY":0.00023939,"INCLINATION":53.2177,"RA_OF_ASC_NODE":46.1773,"ARG_OF_PERICENTER":101.8263,"MEAN_ANOMALY":258.2998,"EPHEMERIS_TYPE":0,"CLASSIFICATION_TYPE":"U","NORAD_CAT_ID":53783,"ELEMENT_SET_NO":999,"REV_AT_EPOCH":18925,"BSTAR":-0.00016034096,"MEAN_MOTION_DOT":-2.838e-5,"MEAN_MOTION_DDOT":0},{"OBJECT_NAME":"STARLINK-4687","OBJECT_ID":"2022-111M","EPOCH":"2026-02-08T06:22:55.799904","MEAN_MOTION":15.08841621,"ECCENTRICITY":0.00010664,"INCLINATION":53.2158,"RA_OF_ASC_NODE":46.2462,"ARG_OF_PERICENTER":118.9397,"MEAN_ANOMALY":241.1703,"EPHEMERIS_TYPE":0,"CLASSIFICATION_TYPE":"U","NORAD_CAT_ID":53784,"ELEMENT_SET_NO":999,"REV_AT_EPOCH":18925,"BSTAR":3.4418471e-5,"MEAN_MOTION_DOT":2.6e-6,"MEAN_MOTION_DDOT":0},{"OBJECT_NAME":"STARLINK-4743","OBJECT_ID":"2022-111Q","EPOCH":"2026-02-08T04:21:00.608256","MEAN_MOTION":15.08837176,"ECCENTRICITY":0.00015449,"INCLINATION":53.2182,"RA_OF_ASC_NODE":46.427,"ARG_OF_PERICENTER":106.0652,"MEAN_ANOMALY":254.051,"EPHEMERIS_TYPE":0,"CLASSIFICATION_TYPE":"U","NORAD_CAT_ID":53787,"ELEMENT_SET_NO":999,"REV_AT_EPOCH":18924,"BSTAR":3.5652538e-5,"MEAN_MOTION_DOT":2.79e-6,"MEAN_MOTION_DDOT":0},{"OBJECT_NAME":"STARLINK-4666","OBJECT_ID":"2022-111S","EPOCH":"2026-02-08T00:54:19.123776","MEAN_MOTION":15.08866339,"ECCENTRICITY":0.00015333,"INCLINATION":53.218,"RA_OF_ASC_NODE":46.9584,"ARG_OF_PERICENTER":86.2399,"MEAN_ANOMALY":273.8769,"EPHEMERIS_TYPE":0,"CLASSIFICATION_TYPE":"U","NORAD_CAT_ID":53789,"ELEMENT_SET_NO":999,"REV_AT_EPOCH":18921,"BSTAR":0.0014946421,"MEAN_MOTION_DOT":0.00023596,"MEAN_MOTION_DDOT":0}]
