STARLINK-4656           
1 53745U 22107AX  26039.22637452 -.00000341  00000+0 -33168-5 0  9992
2 53745  53.2181  36.5177 0001434  89.1544 270.9612 15.08836010190142
STARLINK-4589           
1 53746U 22107AY  26039.28523670  .00002251  00000+0  15945-3 0  9996
2 53746  53.2185  36.1746 0001485  93.0069 267.1094 15.08840111190157
STARLINK-4612           
1 53750U 22107BC  26039.23372634  .00003050  00000+0  20955-3 0  9993
2 53750  53.2186  36.5636 0001516  85.0180 275.0985 15.08860501190157
STARLINK-4718           
1 53773U 22111A   26039.25764350 -.00000080  00000+0  13091-4 0  9990
2 53773  53.2187  56.1733 0001560  93.7850 266.3320 15.08824986189407
STARLINK-4719           
1 53774U 22111B   26039.25393857  .00000737  00000+0  64385-4 0  9991
2 53774  53.2186  56.1490 0001511 108.1912 251.9245 15.08839081189265
STARLINK-4722           
1 53775U 22111C   26039.28434769 -.00000401  00000+0 -70776-5 0  9995
2 53775  53.2174  46.3597 0001350  84.8312 275.2834 15.08839970189256
STARLINK-4664           
1 53777U 22111E   26039.27697727  .00000256  00000+0  34164-4 0  9997
2 53777  53.2184  46.3129 0001540  89.3880 270.7289 15.08836985189258
STARLINK-4709           
1 53778U 22111F   26039.23781996  .00000388  00000+0  42486-4 0  9998
2 53778  53.2179  51.0601 0001431 106.1467 253.9683 15.08839759189184
STARLINK-4706           
1 53779U 22111G   26039.27327783  .00001939  00000+0  13985-3 0  9997
2 53779  53.2184  46.2903 0001394  87.9496 272.1656 15.08849904189252
STARLINK-4678           
1 53780U 22111H   26039.28067289 -.00001273  00000+0 -61925-4 0  9993
2 53780  53.2195  46.3336 0001482 129.5405 230.5719 15.08836208189259
STARLINK-4462           
1 53781U 22111J   26039.26223847 -.00000139  00000+0  93332-5 0  9993
2 53781  53.2183  46.2231 0001447  92.0837 268.0321 15.08836677189259
STARLINK-4679           
1 53782U 22111K   26039.26960786  .00000023  00000+0  19557-4 0  9991
2 53782  53.2173  46.2683 0001265  85.3164 274.7972 15.08838404189252
STARLINK-4536           
1 53783U 22111L   26039.25487450 -.00002838  00000+0 -16034-3 0  9997
2 53783  53.2177  46.1773 0002393 101.8263 258.2998 15.08826369189255
STARLINK-4687           
1 53784U 22111M   26039.26592361  .00000260  00000+0  34418-4 0  9999
2 53784  53.2158  46.2462 0001066 118.9397 241.1703 15.08841621189257
STARLINK-4743           
1 53787U 22111Q   26039.18125704  .00000279  00000+0  35653-4 0  9998
2 53787  53.2182  46.4270 0001544 106.0652 254.0510 15.08837176189247
STARLINK-4666           
1 53789U 22111S   26039.03772134  .00023596  00000+0  14946-2 0  9996
2 53789  53.2180  46.9584 0001533  86.2399 273.8769 15.08866339189210
